ONEWEB-0694             
1 56722U 23068N   23238.07425937  .00005043  00000+0  69331-3 0  9992
2 56722  86.7215 100.3970 0012674 238.8665 121.1313 14.78102410 14567
ONEWEB-0696             
1 56723U 23068P   23238.58334491 -.00894097  00000+0 -87377+0 0  9996
2 56723  87.3835 103.9265 0009716 267.7145 296.6823 13.82644408  5595
ONEWEB-0703             
1 56724U 23068Q   23238.58334491  .00000015  00000+0  00000+0 0  9992
2 56724  87.4943 104.2834 0008945 262.8204  28.8072 13.70988716 15017
ONEWEB-0721             
1 56725U 23068R   23238.10870859  .00002039  00000+0  24724-3 0  9995
2 56725  86.6736  99.7039 0008715 235.8203 124.2195 14.83076658 14607
